EUTELSAT 8 WEST B       
1 40875U 15039B   26005.24249029 -.00000066  00000+0  00000+0 0  9998
2 40875   0.0632 358.4607 0004127 285.3180 260.3629  1.00271803 38024
EUTELSAT 9B             
1 41310U 16005A   26005.24587031  .00000061  00000+0  00000+0 0  9999
2 41310   0.0540  68.9345 0004950 213.8842 279.5227  1.00272926 36485
EUTELSAT 65 WEST A      
1 41382U 16014A   26005.26488123 -.00000277  00000+0  00000+0 0  9992
2 41382   0.0657 317.8711 0002503 326.9376 210.2045  1.00272444 35907
EUTELSAT 117 WEST B     
1 41589U 16038B   26004.57896622 -.00000010  00000+0  00000+0 0  9992
2 41589   0.0101 155.1716 0000214 306.0311  94.4173  1.00265363 35022
EUTELSAT 172B           
1 42741U 17029B   26005.06406130 -.00000006  00000+0  00000+0 0  9995
2 42741   0.0294 117.7692 0000246 122.7626  59.1748  1.00270838 32093
EUTELSAT 7C             
1 44334U 19034B   26005.24552365  .00000047  00000+0  00000+0 0  9999
2 44334   0.0752 180.1375 0003485  89.6014 290.4577  1.00270761  5202
EUTELSAT 5 WEST B       
1 44624U 19067A   26005.24309696 -.00000043  00000+0  00000+0 0  9991
2 44624   0.0715 330.7008 0003410 314.0431 262.5929  1.00271214 22805
EUTELSAT KONNECT        
1 45027U 20005B   26005.03156109  .00000049  00000+0  00000+0 0  9994
2 45027   0.0695  92.9010 0001662 187.0331 203.2409  1.00269949 22700
